GLOBALSTAR M063         
1 26081U 00008A   25257.33302911 -.00000056  00000+0  38722-3 0  9994
2 26081  51.9929 236.7932 0004524 125.2248  22.7516 11.86176071168157
GLOBALSTAR M062         
1 26082U 00008B   25257.53170105 -.00000070  00000+0  20188-3 0  9998
2 26082  51.9839 193.0455 0007056 306.6958 225.3190 12.43471992507733
GLOBALSTAR M060         
1 26083U 00008C   25257.48048221 -.00000182  00000+0 -90149-3 0  9995
2 26083  52.0013 165.8371 0003267 318.3505 213.1200 12.17664715163241
GLOBALSTAR M064         
1 26084U 00008D   25257.45712345 -.00000046  00000+0  53338-3 0  9995
2 26084  52.0061 334.2445 0001402 210.8689 149.2062 11.88536297177719
GLOBALSTAR M065         
1 31571U 07020A   25257.49424544 -.00000104  00000+0  43101-6 0  9993
2 31571  51.9910 314.4457 0010447 144.9544 321.7944 12.62010352844681
GLOBALSTAR M069         
1 31573U 07020C   25257.45327991 -.00000067  00000+0  23882-3 0  9998
2 31573  52.0046 312.5587 0001337 302.1980  70.8233 12.23461910845050
GLOBALSTAR M072         
1 31574U 07020D   25257.03015699 -.00000085  00000+0 -19210-4 0  9994
2 31574  51.9916 115.4489 0001618 108.3282  60.0332 11.91651741842054
GLOBALSTAR M071         
1 31576U 07020F   25257.56979490 -.00000035  00000+0  54936-3 0  9999
2 31576  52.0091 340.3668 0000334 270.9238 196.8882 12.18257705505833
